[
    {
        "CCSDS_OMM_VERS": "3.0",
        "COMMENT": "GENERATED VIA SPACE-TRACK.ORG API",
        "CREATION_DATE": "2025-05-03T06:26:27",
        "ORIGINATOR": "18 SPCS",
        "OBJECT_NAME": "GALILEO 28 (224)",
        "OBJECT_ID": "2021-116B",
        "CENTER_NAME": "EARTH",
        "REF_FRAME": "TEME",
        "TIME_SYSTEM": "UTC",
        "MEAN_ELEMENT_THEORY": "SGP4",
        "EPOCH": "2025-05-03T02:01:23.869920",
        "MEAN_MOTION": "1.70475646",
        "ECCENTRICITY": "0.00003010",
        "INCLINATION": "57.2684",
        "RA_OF_ASC_NODE": "352.7429",
        "ARG_OF_PERICENTER": "26.0404",
        "MEAN_ANOMALY": "157.1405",
        "EPHEMERIS_TYPE": "0",
        "CLASSIFICATION_TYPE": "U",
        "NORAD_CAT_ID": "49810",
        "ELEMENT_SET_NO": "999",
        "REV_AT_EPOCH": "2120",
        "BSTAR": "0.00000000000000",
        "MEAN_MOTION_DOT": "-0.00000100",
        "MEAN_MOTION_DDOT": "0.0000000000000",
        "SEMIMAJOR_AXIS": "29600.130",
        "PERIOD": "844.695",
        "APOAPSIS": "23222.885",
        "PERIAPSIS": "23221.104",
        "OBJECT_TYPE": "PAYLOAD",
        "RCS_SIZE": "LARGE",
        "COUNTRY_CODE": "ESA",
        "LAUNCH_DATE": "2021-12-05",
        "SITE": "FRGUI",
        "DECAY_DATE": null,
        "FILE": "4717322",
        "GP_ID": "286729624",
        "TLE_LINE0": "0 GALILEO 28 (224)",
        "TLE_LINE1": "1 49810U 21116B   25123.08430405 -.00000100  00000-0  00000+0 0  9991",
        "TLE_LINE2": "2 49810  57.2684 352.7429 0000301  26.0404 157.1405  1.70475646 21206"
    }
]